HAWK-7A                 
1 56191U 23054P   26088.15995666  .00009037  00000+0  34911-3 0  9996
2 56191  97.2808 337.5340 0002362   0.1545 359.9694 15.26471809164819
HAWK-7B                 
1 56193U 23054R   26088.15987455  .00009015  00000+0  34823-3 0  9993
2 56193  97.2837 335.7682 0002117  22.0021 338.1309 15.26475741164813
HAWK-7C                 
1 56200U 23054Y   26088.15975868  .00008871  00000+0  34273-3 0  9995
2 56200  97.2812 336.5626 0001792   8.1271 351.9997 15.26474885164816
