[{"OBJECT_NAME":"HAWK-7A","OBJECT_ID":"2023-054P","EPOCH":"2026-03-29T03:50:20.255424","MEAN_MOTION":15.26471809,"ECCENTRICITY":0.0002362,"INCLINATION":97.2808,"RA_OF_ASC_NODE":337.534,"ARG_OF_PERICENTER":0.1545,"MEAN_ANOMALY":359.9694,"EPHEMERIS_TYPE":0,"CLASSIFICATION_TYPE":"U","NORAD_CAT_ID":56191,"ELEMENT_SET_NO":999,"REV_AT_EPOCH":16481,"BSTAR":0.00034911,"MEAN_MOTION_DOT":9.037e-5,"MEAN_MOTION_DDOT":0},{"OBJECT_NAME":"HAWK-7B","OBJECT_ID":"2023-054R","EPOCH":"2026-03-29T03:50:13.161120","MEAN_MOTION":15.26475741,"ECCENTRICITY":0.0002117,"INCLINATION":97.2837,"RA_OF_ASC_NODE":335.7682,"ARG_OF_PERICENTER":22.0021,"MEAN_ANOMALY":338.1309,"EPHEMERIS_TYPE":0,"CLASSIFICATION_TYPE":"U","NORAD_CAT_ID":56193,"ELEMENT_SET_NO":999,"REV_AT_EPOCH":16481,"BSTAR":0.00034823,"MEAN_MOTION_DOT":9.015e-5,"MEAN_MOTION_DDOT":0},{"OBJECT_NAME":"HAWK-7C","OBJECT_ID":"2023-054Y","EPOCH":"2026-03-29T03:50:03.149952","MEAN_MOTION":15.26474885,"ECCENTRICITY":0.0001792,"INCLINATION":97.2812,"RA_OF_ASC_NODE":336.5626,"ARG_OF_PERICENTER":8.1271,"MEAN_ANOMALY":351.9997,"EPHEMERIS_TYPE":0,"CLASSIFICATION_TYPE":"U","NORAD_CAT_ID":56200,"ELEMENT_SET_NO":999,"REV_AT_EPOCH":16481,"BSTAR":0.00034273,"MEAN_MOTION_DOT":8.871e-5,"MEAN_MOTION_DDOT":0}]
